$$SOE
2460721.500000000, A.D. 2025-Feb-15 00:00:00.0000, 2.681616521294575E+08, 4.072167052792879E+08, 9.915295216715454E+07,
2460728.500000000, A.D. 2025-Feb-22 00:00:00.0000, 2.601647586818186E+08, 4.122904246410115E+08, 9.917478655620819E+07,
2460735.500000000, A.D. 2025-Mar-01 00:00:00.0000, 2.520651786237295E+08, 4.172017740599028E+08, 9.915744341282541E+07,
2460742.500000000, A.D. 2025-Mar-08 00:00:00.0000, 2.438660583511701E+08, 4.219487432708794E+08, 9.910090889120001E+07,
2460749.500000000, A.D. 2025-Mar-15 00:00:00.0000, 2.355705784822876E+08, 4.265293709960850E+08, 9.900518089170071E+07,
2460756.500000000, A.D. 2025-Mar-22 00:00:00.0000, 2.271819513706068E+08, 4.309417457274789E+08, 9.887026934282437E+07,
2460763.500000000, A.D. 2025-Mar-29 00:00:00.0000, 2.187034199917563E+08, 4.351840042747111E+08, 9.869619617868221E+07,
2460770.500000000, A.D. 2025-Apr-05 00:00:00.0000, 2.101382585292779E+08, 4.392543312178341E+08, 9.848299523864192E+07,
2460777.500000000, A.D. 2025-Apr-12 00:00:00.0000, 2.014897727325326E+08, 4.431509593685136E+08, 9.823071227358219E+07,
2460784.500000000, A.D. 2025-Apr-19 00:00:00.0000, 1.927612998579110E+08, 4.468721703587058E+08, 9.793940500342512E+07,
2460791.500000000, A.D. 2025-Apr-26 00:00:00.0000, 1.839562084636990E+08, 4.504162951545506E+08, 9.760914318415415E+07,
2460798.500000000, A.D. 2025-May-03 00:00:00.0000, 1.750778981711138E+08, 4.537817145154508E+08, 9.724000867522210E+07,
2460805.500000000, A.D. 2025-May-10 00:00:00.0000, 1.661297994189354E+08, 4.569668594077030E+08, 9.683209550521654E+07,
2460812.500000000, A.D. 2025-May-17 00:00:00.0000, 1.571153732472392E+08, 4.599702113322611E+08, 9.638550992887554E+07,
2460819.500000000, A.D. 2025-May-24 00:00:00.0000, 1.480381112828371E+08, 4.627903025128036E+08, 9.590037045492858E+07,
2460826.500000000, A.D. 2025-May-31 00:00:00.0000, 1.389015363429551E+08, 4.654257162560192E+08, 9.537680783188587E+07,
2460833.500000000, A.D. 2025-Jun-07 00:00:00.0000, 1.297092032555914E+08, 4.678750886898721E+08, 9.481496512706411E+07,
2460840.500000000, A.D. 2025-Jun-14 00:00:00.0000, 1.204646975313022E+08, 4.701371112121435E+08, 9.421499806070626E+07,
2460847.500000000, A.D. 2025-Jun-21 00:00:00.0000, 1.111716331003424E+08, 4.722105303768934E+08, 9.357707521578065E+07,
2460854.500000000, A.D. 2025-Jun-28 00:00:00.0000, 1.018336522414487E+08, 4.740941469856917E+08, 9.290137798132291E+07,
2460861.500000000, A.D. 2025-Jul-05 00:00:00.0000, 9.245442618538079E+07, 4.757868165411602E+08, 9.218810054479402E+07,
2460868.500000000, A.D. 2025-Jul-12 00:00:00.0000, 8.303765520100766E+07, 4.772874502569076E+08, 9.143744997651187E+07,
2460875.500000000, A.D. 2025-Jul-19 00:00:00.0000, 7.358706835170747E+07, 4.785950160486383E+08, 9.064964634159344E+07,
2460882.500000000, A.D. 2025-Jul-26 00:00:00.0000, 6.410642313032273E+07, 4.797085394501179E+08, 8.982492281549263E+07,
2460889.500000000, A.D. 2025-Aug-02 00:00:00.0000, 5.459950503645729E+07, 4.806271044760016E+08, 8.896352579890546E+07,
2460896.500000000, A.D. 2025-Aug-09 00:00:00.0000, 4.507012711798613E+07, 4.813498544172944E+08, 8.806571502872384E+07,
2460903.500000000, A.D. 2025-Aug-16 00:00:00.0000, 3.552212955223457E+07, 4.818759925066454E+08, 8.713176367284217E+07,
2460910.500000000, A.D. 2025-Aug-23 00:00:00.0000, 2.595937955802954E+07, 4.822047824703398E+08, 8.616195838334575E+07,
2460917.500000000, A.D. 2025-Aug-30 00:00:00.0000, 1.638577196631534E+07, 4.823355496815284E+08, 8.515659933627668E+07,
2460924.500000000, A.D. 2025-Sep-06 00:00:00.0000, 6.805229030760807E+06, 4.822676839150762E+08, 8.411600046957108E+07,
2460931.500000000, A.D. 2025-Sep-13 00:00:00.0000, -2.778302192912176E+06, 4.820006412183872E+08, 8.304048986847726E+07,
2460938.500000000, A.D. 2025-Sep-20 00:00:00.0000, -1.236085162918623E+07, 4.815339432506736E+08, 8.193040986303610E+07,
2460945.500000000, A.D. 2025-Sep-27 00:00:00.0000, -2.193842607170645E+07, 4.808671772031773E+08, 8.078611699510127E+07,
2460952.500000000, A.D. 2025-Oct-04 00:00:00.0000, -3.150700919759512E+07, 4.799999968405405E+08, 7.960798208410829E+07,
2460959.500000000, A.D. 2025-Oct-11 00:00:00.0000, -4.106256208285336E+07, 4.789321237205768E+08, 7.839639034880778E+07,
2460966.500000000, A.D. 2025-Oct-18 00:00:00.0000, -5.060102393704429E+07, 4.776633483187511E+08, 7.715174153653532E+07,
2460973.500000000, A.D. 2025-Oct-25 00:00:00.0000, -6.011831291910634E+07, 4.761935310690261E+08, 7.587445004789200E+07,
2460980.500000000, A.D. 2025-Nov-01 00:00:00.0000, -6.961032699613541E+07, 4.745226033366946E+08, 7.456494505395350E+07,
2460987.500000000, A.D. 2025-Nov-08 00:00:00.0000, -7.907294481205258E+07, 4.726505682914597E+08, 7.322367059954470E+07,
2460994.500000000, A.D. 2025-Nov-15 00:00:00.0000, -8.850202642004815E+07, 4.705775016216170E+08, 7.185108567343804E+07,
2461001.500000000, A.D. 2025-Nov-22 00:00:00.0000, -9.789341347821124E+07, 4.683035523088766E+08, 7.044766422578725E+07,
2461008.500000000, A.D. 2025-Nov-29 00:00:00.0000, -1.072429290638670E+08, 4.658289445989592E+08, 6.901389523904684E+07,
2461015.500000000, A.D. 2025-Dec-06 00:00:00.0000, -1.165463793853653E+08, 4.631539810325129E+08, 6.755028304959056E+07,
2461022.500000000, A.D. 2025-Dec-13 00:00:00.0000, -1.257995569580871E+08, 4.602790431639004E+08, 6.605734760379773E+07,
2461029.500000000, A.D. 2025-Dec-20 00:00:00.0000, -1.349982417542718E+08, 4.572045909885902E+08, 6.453562441114938E+07,
2461036.500000000, A.D. 2025-Dec-27 00:00:00.0000, -1.441382014030654E+08, 4.539311636714992E+08, 6.298566450448442E+07,
2461043.500000000, A.D. 2026-Jan-03 00:00:00.0000, -1.532151919005789E+08, 4.504593809607626E+08, 6.140803449045584E+07,
2461050.500000000, A.D. 2026-Jan-10 00:00:00.0000, -1.622249587210031E+08, 4.467899446063955E+08, 5.980331662396529E+07,
2461057.500000000, A.D. 2026-Jan-17 00:00:00.0000, -1.711632380976255E+08, 4.429236396905844E+08, 5.817210887720647E+07,
2461064.500000000, A.D. 2026-Jan-24 00:00:00.0000, -1.800257583975042E+08, 4.388613358907610E+08, 5.651502499760371E+07,
2461071.500000000, A.D. 2026-Jan-31 00:00:00.0000, -1.888082415682378E+08, 4.346039886666730E+08, 5.483269455159590E+07,
2461078.500000000, A.D. 2026-Feb-07 00:00:00.0000, -1.975064045973042E+08, 4.301526403128775E+08, 5.312576294378120E+07,
2461085.500000000, A.D. 2026-Feb-14 00:00:00.0000, -2.061159607328884E+08, 4.255084208602072E+08, 5.139489138688728E+07,
2461092.500000000, A.D. 2026-Feb-21 00:00:00.0000, -2.146326200806802E+08, 4.206725494021198E+08, 4.964075683416703E+07,
2461099.500000000, A.D. 2026-Feb-28 00:00:00.0000, -2.230520906637035E+08, 4.156463369988862E+08, 4.786405206800479E+07,
2461106.500000000, A.D. 2026-Mar-07 00:00:00.0000, -2.313700820045591E+08, 4.104311892092171E+08, 4.606548597401330E+07,
2461113.500000000, A.D. 2026-Mar-14 00:00:00.0000, -2.395823084536862E+08, 4.050286059127225E+08, 4.424578355483159E+07,
2461120.500000000, A.D. 2026-Mar-21 00:00:00.0000, -2.476844904827754E+08, 3.994401813165492E+08, 4.240568575658992E+07,
2461127.500000000, A.D. 2026-Mar-28 00:00:00.0000, -2.556723559553928E+08, 3.936676051733090E+08, 4.054594937627697E+07,
2461134.500000000, A.D. 2026-Apr-04 00:00:00.0000, -2.635416419793521E+08, 3.877126642423968E+08, 3.866734702610046E+07,
2461141.500000000, A.D. 2026-Apr-11 00:00:00.0000, -2.712880970676603E+08, 3.815772436310644E+08, 3.677066709986869E+07,
2461148.500000000, A.D. 2026-Apr-18 00:00:00.0000, -2.789074834498402E+08, 3.752633280048056E+08, 3.485671372583142E+07,
2461155.500000000, A.D. 2026-Apr-25 00:00:00.0000, -2.863955794887530E+08, 3.687730026782578E+08, 3.292630670255579E+07,
2461162.500000000, A.D. 2026-May-02 00:00:00.0000, -2.937481821726561E+08, 3.621084545535513E+08, 3.098028141208375E+07,
2461169.500000000, A.D. 2026-May-09 00:00:00.0000, -3.009611095575526E+08, 3.552719728361031E+08, 2.901948869287765E+07,
2461176.500000000, A.D. 2026-May-16 00:00:00.0000, -3.080302027808137E+08, 3.482659496615114E+08, 2.704479464840476E+07,
2461183.500000000, A.D. 2026-May-23 00:00:00.0000, -3.149513275933657E+08, 3.410928816501074E+08, 2.505708046932603E+07,
2461190.500000000, A.D. 2026-May-30 00:00:00.0000, -3.217203774895309E+08, 3.337553727030606E+08, 2.305724248525870E+07,
2461197.500000000, A.D. 2026-Jun-06 00:00:00.0000, -3.283332787523990E+08, 3.262561347618132E+08, 2.104619220693053E+07,
2461204.500000000, A.D. 2026-Jun-13 00:00:00.0000, -3.347859937482057E+08, 3.185979867234370E+08, 1.902485603802031E+07,
2461211.500000000, A.D. 2026-Jun-20 00:00:00.0000, -3.410745229728874E+08, 3.107838544322523E+08, 1.699417494102381E+07,
2461218.500000000, A.D. 2026-Jun-27 00:00:00.0000, -3.471949075515840E+08, 3.028167714055185E+08, 1.495510418412720E+07,
2461225.500000000, A.D. 2026-Jul-04 00:00:00.0000, -3.531432321906625E+08, 2.946998795156263E+08, 1.290861310453115E+07,
2461232.500000000, A.D. 2026-Jul-11 00:00:00.0000, -3.589156283265604E+08, 2.864364294923272E+08, 1.085568485288267E+07,
2461239.500000000, A.D. 2026-Jul-18 00:00:00.0000, -3.645082773769395E+08, 2.780297812653043E+08, 8.797316111184210E+06,
2461246.500000000, A.D. 2026-Jul-25 00:00:00.0000, -3.699174140679590E+08, 2.694834041441115E+08, 6.734516781013981E+06,
2461253.500000000, A.D. 2026-Aug-01 00:00:00.0000, -3.751393297877186E+08, 2.608008767816170E+08, 4.668309632651195E+06,
2461260.500000000, A.D. 2026-Aug-08 00:00:00.0000, -3.801703757488812E+08, 2.519858868792872E+08, 2.599729891504765E+06,
2461267.500000000, A.D. 2026-Aug-15 00:00:00.0000, -3.850069655430217E+08, 2.430422310787801E+08, 5.298247597230822E+05,
2461274.500000000, A.D. 2026-Aug-22 00:00:00.0000, -3.896455778455734E+08, 2.339738162551005E+08, -1.540346958207101E+06,
2461281.500000000, A.D. 2026-Aug-29 00:00:00.0000, -3.940827615591723E+08, 2.247846608335556E+08, -3.609715028990209E+06,
2461288.500000000, A.D. 2026-Sep-05 00:00:00.0000, -3.983151412586610E+08, 2.154788932585070E+08, -5.677198194060579E+06,
$$EOE